APSTAR-9                
1 40982U 15059A   26094.20436660 -.00000266  00000+0  00000+0 0  9994
2 40982   0.0430 350.1275 0001062 253.6083 164.3653  1.00273812 38374
TURKSAT 4B              
1 40984U 15060A   26094.24350380  .00000114  00000+0  00000+0 0  9997
2 40984   0.0337  87.5478 0002408 290.9297 311.7187  1.00272291 38352
MSG 4 DEB [COOLER COVER]
1 40989U 15034E   26094.59077520 -.00000283  00000+0  00000+0 0  9991
2 40989   6.9264  80.0721 0037073 299.4415 108.6632  1.01542748 39595
ZHONGXING-2C            
1 41021U 15063A   26094.05417266 -.00000325  00000+0  00000+0 0  9994
2 41021   0.0866  99.6467 0005891 116.1633  99.4824  1.00275607 38235
GSAT-15                 
1 41028U 15065A   26094.11711435 -.00000258  00000+0  00000+0 0  9990
2 41028   0.0197 230.1949 0002568 178.7148 279.1669  1.00270260 38053
BADR-7 (ARABSAT-6B)     
1 41029U 15065B   26094.18139984  .00000144  00000+0  00000+0 0  9994
2 41029   0.0192 199.3067 0002440  50.3627  34.1229  1.00273708 38020
COSMOS 2510             
1 41032U 15066A   26086.33825851  .00000739  00000+0  00000+0 0  9992
2 41032  63.4773 357.5010 7210834 274.5967  13.8817  2.00991615 75821
FREGAT R/B              
1 41033U 15066B   26093.68912794 -.00000119  00000+0  56510-3 0  9996
2 41033  62.8980 322.6885 7438608 266.9345  14.3340  2.01970479 76413
LAOSAT 1                
1 41034U 15067A   26094.25600255 -.00000343  00000+0  00000+0 0  9996
2 41034   0.0425   7.3228 0001996 336.2127  69.7068  1.00272415 38117
TELSTAR 12V             
1 41036U 15068A   26094.17316646 -.00000119  00000+0  00000+0 0  9999
2 41036   0.0179 229.8360 0002643 141.3821 228.6097  1.00272474 37885
H-2A R/B                
1 41037U 15068B   26093.61540174 -.00000123  00000+0  00000+0 0  9998
2 41037  19.3664  89.6256 6446782 255.8946  29.1947  2.12566711 80469
ELEKTRO-L 2             
1 41105U 15074A   26093.74548235 -.00000116  00000+0  00000+0 0  9993
2 41105   6.5084  71.4277 0002654 257.1473 117.3865  1.00272274 37769
FREGAT R/B              
1 41106U 15074B   26093.68321648 -.00000026  00000+0  00000+0 0  9994
2 41106   7.9518  62.6973 0199034 356.5588   3.3221  1.02892713 38749
CZ-3B DEB               
1 41119U 11077AJ  26075.70267014 -.00000079  00000+0  00000+0 0  9994
2 41119  22.6635  15.8016 7279829 223.9770  47.4239  1.69766515 69434
COSMOS 2513             
1 41121U 15075A   26094.02941998 -.00000139  00000+0  00000+0 0  9992
2 41121   0.0560 102.8611 0002693 281.1152 259.2180  1.00271670 37800
BREEZE-M R/B            
1 41122U 15075B   26094.01107467 -.00000176  00000+0  00000+0 0  9998
2 41122   8.3101  59.5918 0336370 160.7998 200.5299  1.04640856 39423
EXPRESS-AMU1            
1 41191U 15082A   26094.18864199  .00000155  00000+0  00000+0 0  9998
2 41191   0.0170 147.8707 0003121 212.7633 295.8581  1.00272936 37526
GAOFEN-4                
1 41194U 15083A   26094.05460600 -.00000335  00000+0  00000+0 0  9998
2 41194   0.3912  82.9433 0006149  86.3563 148.4282  1.00271511 37788
BELINTERSAT-1           
1 41238U 16001A   26094.24350380  .00000106  00000+0  00000+0 0  9997
2 41238   0.0455  69.5174 0001515 291.0702 331.1463  1.00270166 37496
IRNSS-1E                
1 41241U 16003A   26094.34078049 -.00000292  00000+0  00000+0 0  9990
2 41241  33.0772  60.8121 0016904 186.2611 180.0759  1.00272036 37347
INTELSAT 29E (IS-29E)   
1 41308U 16004A   26093.87266250 -.00000208  00000+0  00000+0 0  9992
2 41308   6.3148  71.1998 0000740 302.5439  39.8662  1.00631029 37525
EUTELSAT 9B             
1 41310U 16005A   26094.17801982  .00000061  00000+0  00000+0 0  9993
2 41310   0.0545  55.6043 0004001 289.6577 280.3077  1.00270837 37372
SES-9                   
1 41380U 16013A   26094.05495266 -.00000346  00000+0  00000+0 0  9997
2 41380   0.0184 252.4710 0002046 161.8006 266.1721  1.00271572 36690
FALCON 9 R/B            
1 41381U 16013B   26089.84154041  .00001123  00000+0  19021-2 0  9991
2 41381  27.4710 275.1173 7423166 271.7429  12.8647  2.05299902 73700
EUTELSAT 65 WEST A      
1 41382U 16014A   26094.23461338 -.00000277  00000+0  00000+0 0  9996
2 41382   0.0653 324.7759 0002293  50.1685 196.8739  1.00271662 36784
IRNSS-1F                
1 41384U 16015A   26094.18864199  .00000160  00000+0  00000+0 0  9995
2 41384   5.1618  98.5020 0017937 187.9235   6.4465  1.00274794 36928
BEIDOU-2 IGSO-6         
1 41434U 16021A   26092.81344461 -.00000170  00000+0  00000+0 0  9993
2 41434  60.1276  38.7875 0058842 233.3821 307.4549  1.00273243 36729
IRNSS-1G                
1 41469U 16027A   26093.98795906 -.00000333  00000+0  00000+0 0  9991
2 41469   5.0118  99.2370 0005822 331.1498 247.1200  1.00270969 36433
JCSAT-2B                
1 41471U 16028A   26093.84003152  .00000000  00000+0  00000+0 0  9995
2 41471   0.0190 195.8619 0000775 200.2626 252.4609  1.00269899 36387
BREEZE-M DEB            
1 41544U 15075E   26090.40686483 -.00000234  00000+0  00000+0 0  9990
2 41544   8.2235  60.4508 0319346 172.9776 187.5675  1.05681049 39418
BREEZE-M DEB            
1 41547U 15075H   26092.15441209 -.00000032  00000+0  00000+0 0  9998
2 41547   8.4737  62.7745 0266051 137.4443 224.7097  1.03189701 38494
BREEZE-M DEB            
1 41548U 15075J   26093.30842723 -.00000284  00000+0  00000+0 0  9992
2 41548   8.5242  56.6187 0368923 134.1754 228.9430  1.02193554 38508
THAICOM 8               
1 41552U 16031A   26094.22614111 -.00000122  00000+0  00000+0 0  9991
2 41552   0.0713  40.8479 0004239 334.8802 336.7352  1.00273119 35975
INTELSAT 31 (IS-31)     
1 41581U 16035A   26093.94350626 -.00000153  00000+0  00000+0 0  9997
2 41581   0.0130 222.4604 0001522  25.0744 189.3588  1.00276525 35937
BREEZE-M R/B            
1 41582U 16035B   26092.50178376 -.00000230  00000+0  00000+0 0  9995
2 41582  31.7587 302.2689 7911427 136.9475 322.7530  1.12666480 40380
DELTA 4 R/B             
1 41585U 16036B   26093.72971155 -.00000244  00000+0  00000+0 0  9995
2 41585   5.5600 358.0917 0228983 253.4127 103.9415  1.04081046 24957
BEIDOU-2 G7             
1 41586U 16037A   26093.98414572 -.00000354  00000+0  00000+0 0  9992
2 41586   1.5375  68.5645 0007309 348.3899 240.0809  1.00278098  6143
ABS-2A (MONGOLSAT-1)    
1 41588U 16038A   26094.23169860 -.00000084  00000+0  00000+0 0  9991
2 41588   0.0106 228.9137 0001694  96.7146  25.0521  1.00270652 35961
EUTELSAT 117 WEST B     
1 41589U 16038B   26094.08173277 -.00000013  00000+0  00000+0 0  9994
2 41589   0.0176  54.8867 0000361 214.5742 195.3788  1.00271113 35922
FALCON 9 R/B            
1 41590U 16038C   26093.73598608  .00000103  00000+0  54060-3 0  9994
2 41590  23.7809 337.7718 7962765 281.5925   7.2202  1.45732476 44987
BRISAT                  
1 41591U 16039A   26093.68030885 -.00000198  00000+0  00000+0 0  9994
2 41591   0.0153 239.9850 0002232 133.7661 213.6583  1.00271091 35864
ECHOSTAR 18             
1 41592U 16039B   26094.23539338  .00000000  00000+0  00000+0 0  9995
2 41592   0.0187 199.7661 0001530 187.3647 188.8064  1.00268414 35888
MUOS-5                  
1 41622U 16041A   26094.22655335 -.00000163  00000+0  00000+0 0  9998
2 41622   2.3645 300.3280 0194466 262.1171 326.7603  1.00273676 36348
TIANTONG-1 1            
1 41725U 16048A   26093.69721959 -.00000318  00000+0  00000+0 0  9997
2 41725   3.7083  42.7354 0006406  10.6542 131.0420  1.00272557 35526
JCSAT-16                
1 41729U 16050A   26094.23586623 -.00000251  00000+0  00000+0 0  9998
2 41729   0.0181 198.2887 0001161 193.5053  29.6133  1.00271719 35328
USA 270                 
1 41744U 16052A   26093.35524139  .00000029  00000+0  00000+0 0  9995
2 41744   4.0059  78.1231 0003830 309.4269 107.2690  1.00334013 27389
USA 271                 
1 41745U 16052B   26093.34527468 -.00000356  00000+0  00000+0 0  9997
2 41745   3.9783  78.1909 0007625 147.5825 215.0428  1.00250962 27173
INTELSAT 36 (IS-36)     
1 41747U 16053A   26092.62108800  .00000000  00000+0  00000+0 0  9990
2 41747   0.0089 185.4546 0000956 155.1190 142.4796  1.00270459 35208
INTELSAT 33E (IS-33E)   
1 41748U 16053B   26094.11977959 -.00000065  00000+0  00000+0 0  9998
2 41748   1.3836  85.2508 0023691 191.1285  34.5251  1.00161705 35507
INSAT-3DR               
1 41752U 16054A   26093.90568263 -.00000079  00000+0  00000+0 0  9999
2 41752   0.1268  86.9448 0012130 196.4528 308.8774  1.00273287 35071
GSAT-18                 
1 41793U 16060A   26091.48126789 -.00000086  00000+0  00000+0 0  9993
2 41793   0.0722  85.5964 0004271 325.6743  25.7739  1.00272128 34753
SKY MUSTER 2 (NBN1B)    
1 41794U 16060B   26094.23586623 -.00000245  00000+0  00000+0 0  9994
2 41794   0.0143 236.4833 0001524 140.9685  44.8172  1.00271150 34773
HIMAWARI-9              
1 41836U 16064A   26094.25044443 -.00000275  00000+0  00000+0 0  9999
2 41836   0.0463 110.7186 0001220 284.7360  28.0475  1.00271363 34462
SHIJIAN-17 (SJ-17)      
1 41838U 16065A   26094.81495648 -.00000180  00000+0  00000+0 0  9996
2 41838   5.5672  73.4719 0001543 340.2857  57.3515  0.99869998 34475
YZ-2 R/B                
1 41840U 16065C   26093.54884861 -.00000162  00000+0  00000+0 0  9997
2 41840   9.1753  67.3298 0466100 230.4058 125.4342  0.93473766 32155
GOES 16                 
1 41866U 16071A   26094.22681335 -.00000091  00000+0  00000+0 0  9990
2 41866   0.1738  85.2990 0001871 245.6791 198.5207  1.00272227 34361
TIANLIAN 1-04           
1 41869U 16072A   26093.85480910  .00000030  00000+0  00000+0 0  9990
2 41869   0.6756  83.2596 0040020  93.8647 139.5576  1.00273442 34556
WGS F8 (USA 272)        
1 41879U 16075A   26093.84003152 -.00000204  00000+0  00000+0 0  9996
2 41879   0.0148 211.3804 0000504 310.3434 122.6689  1.00270704 34079
FENGYUN 4A              
1 41882U 16077A   26093.98683240 -.00000357  00000+0  00000+0 0  9998
2 41882   2.1353  81.0352 0007947 139.8278  90.3181  1.00279080 34188
